{
  "links" : {
    "next" : "https://api.nasa.gov/neo/rest/v1/feed?start_date=2005-07-23&end_date=2005-07-23&detailed=true&api_key=t0TVs3DtDT2H8Oy2Zy8m2eVrNsAVKAexjcZXUckd",
    "prev" : "https://api.nasa.gov/neo/rest/v1/feed?start_date=2005-07-21&end_date=2005-07-21&detailed=true&api_key=t0TVs3DtDT2H8Oy2Zy8m2eVrNsAVKAexjcZXUckd",
    "self" : "https://api.nasa.gov/neo/rest/v1/feed?start_date=2005-07-22&end_date=2005-07-22&detailed=true&api_key=t0TVs3DtDT2H8Oy2Zy8m2eVrNsAVKAexjcZXUckd"
  },
  "element_count" : 3,
  "near_earth_objects" : {
    "2005-07-22" : [ {
      "links" : {
        "self" : "https://api.nasa.gov/neo/rest/v1/neo/2105140?api_key=t0TVs3DtDT2H8Oy2Zy8m2eVrNsAVKAexjcZXUckd"
      },
      "neo_reference_id" : "2105140",
      "name" : "105140 (2000 NL10)",
      "nasa_jpl_url" : "http://ssd.jpl.nasa.gov/sbdb.cgi?sstr=2105140",
      "absolute_magnitude_h" : 15.8,
      "estimated_diameter" : {
        "kilometers" : {
          "estimated_diameter_min" : 1.8388867207,
          "estimated_diameter_max" : 4.1118757104
        },
        "meters" : {
          "estimated_diameter_min" : 1838.8867207025,
          "estimated_diameter_max" : 4111.8757104125
        },
        "miles" : {
          "estimated_diameter_min" : 1.1426308805,
          "estimated_diameter_max" : 2.5550003221
        },
        "feet" : {
          "estimated_diameter_min" : 6033.0931087497,
          "estimated_diameter_max" : 13490.4063057499
        }
      },
      "is_potentially_hazardous_asteroid" : false,
      "close_approach_data" : [ {
        "close_approach_date" : "2005-07-22",
        "epoch_date_close_approach" : 1122015600000,
        "relative_velocity" : {
          "kilometers_per_second" : "33.6468614789",
          "kilometers_per_hour" : "121128.7013240904",
          "miles_per_hour" : "75264.6644421827"
        },
        "miss_distance" : {
          "astronomical" : "0.4956942517",
          "lunar" : "192.8250579834",
          "kilometers" : "74154808",
          "miles" : "46077660"
        },
        "orbiting_body" : "Earth"
      } ],
      "orbital_data" : {
        "orbit_id" : "264",
        "orbit_determination_date" : "2017-07-02 06:22:44",
        "orbit_uncertainty" : "0",
        "minimum_orbit_intersection" : ".355525",
        "jupiter_tisserand_invariant" : "6.099",
        "epoch_osculation" : "2458000.5",
        "eccentricity" : ".8169844577981138",
        "semi_major_axis" : ".9143141226873645",
        "inclination" : "32.52825509133202",
        "ascending_node_longitude" : "237.372669912508",
        "orbital_period" : "319.3313587459965",
        "perihelion_distance" : ".1673336949064699",
        "perihelion_argument" : "281.6100227213675",
        "aphelion_distance" : "1.661294550468259",
        "perihelion_time" : "2458014.193055079924",
        "mean_anomaly" : "344.5630574832035",
        "mean_motion" : "1.127355613973234",
        "equinox" : "J2000"
      }
    }, {
      "links" : {
        "self" : "https://api.nasa.gov/neo/rest/v1/neo/3026912?api_key=t0TVs3DtDT2H8Oy2Zy8m2eVrNsAVKAexjcZXUckd"
      },
      "neo_reference_id" : "3026912",
      "name" : "(2000 AG6)",
      "nasa_jpl_url" : "http://ssd.jpl.nasa.gov/sbdb.cgi?sstr=3026912",
      "absolute_magnitude_h" : 25.3,
      "estimated_diameter" : {
        "kilometers" : {
          "estimated_diameter_min" : 0.0231502122,
          "estimated_diameter_max" : 0.0517654482
        },
        "meters" : {
          "estimated_diameter_min" : 23.150212221,
          "estimated_diameter_max" : 51.7654482198
        },
        "miles" : {
          "estimated_diameter_min" : 0.0143848705,
          "estimated_diameter_max" : 0.0321655483
        },
        "feet" : {
          "estimated_diameter_min" : 75.9521422633,
          "estimated_diameter_max" : 169.8341531374
        }
      },
      "is_potentially_hazardous_asteroid" : false,
      "close_approach_data" : [ {
        "close_approach_date" : "2005-07-22",
        "epoch_date_close_approach" : 1122015600000,
        "relative_velocity" : {
          "kilometers_per_second" : "6.4673027236",
          "kilometers_per_hour" : "23282.2898048667",
          "miles_per_hour" : "14466.7094623629"
        },
        "miss_distance" : {
          "astronomical" : "0.0227693972",
          "lunar" : "8.8572950363",
          "kilometers" : "3406253.25",
          "miles" : "2116547.75"
        },
        "orbiting_body" : "Earth"
      } ],
      "orbital_data" : {
        "orbit_id" : "11",
        "orbit_determination_date" : "2017-04-06 09:17:11",
        "orbit_uncertainty" : "5",
        "minimum_orbit_intersection" : ".00435013",
        "jupiter_tisserand_invariant" : "5.983",
        "epoch_osculation" : "2458000.5",
        "eccentricity" : ".1895232834965062",
        "semi_major_axis" : "1.01708776980344",
        "inclination" : "2.438015626453526",
        "ascending_node_longitude" : "282.9649755845822",
        "orbital_period" : "374.6589183614882",
        "perihelion_distance" : ".8243259560661537",
        "perihelion_argument" : "276.5882248799362",
        "aphelion_distance" : "1.209849583540727",
        "perihelion_time" : "2457991.831632532894",
        "mean_anomaly" : "8.329208608740746",
        "mean_motion" : ".9608739639093694",
        "equinox" : "J2000"
      }
    }, {
      "links" : {
        "self" : "https://api.nasa.gov/neo/rest/v1/neo/3754269?api_key=t0TVs3DtDT2H8Oy2Zy8m2eVrNsAVKAexjcZXUckd"
      },
      "neo_reference_id" : "3754269",
      "name" : "(2016 LA49)",
      "nasa_jpl_url" : "http://ssd.jpl.nasa.gov/sbdb.cgi?sstr=3754269",
      "absolute_magnitude_h" : 27.5,
      "estimated_diameter" : {
        "kilometers" : {
          "estimated_diameter_min" : 0.008405334,
          "estimated_diameter_max" : 0.0187948982
        },
        "meters" : {
          "estimated_diameter_min" : 8.4053340207,
          "estimated_diameter_max" : 18.7948982439
        },
        "miles" : {
          "estimated_diameter_min" : 0.0052228308,
          "estimated_diameter_max" : 0.0116786047
        },
        "feet" : {
          "estimated_diameter_min" : 27.5765560686,
          "estimated_diameter_max" : 61.6630539546
        }
      },
      "is_potentially_hazardous_asteroid" : false,
      "close_approach_data" : [ {
        "close_approach_date" : "2005-07-22",
        "epoch_date_close_approach" : 1122015600000,
        "relative_velocity" : {
          "kilometers_per_second" : "12.0318631408",
          "kilometers_per_hour" : "43314.7073068087",
          "miles_per_hour" : "26914.0746596112"
        },
        "miss_distance" : {
          "astronomical" : "0.3891143453",
          "lunar" : "151.3654785156",
          "kilometers" : "58210680",
          "miles" : "36170440"
        },
        "orbiting_body" : "Earth"
      } ],
      "orbital_data" : {
        "orbit_id" : "7",
        "orbit_determination_date" : "2017-04-06 08:25:19",
        "orbit_uncertainty" : "6",
        "minimum_orbit_intersection" : ".00467066",
        "jupiter_tisserand_invariant" : "5.768",
        "epoch_osculation" : "2458000.5",
        "eccentricity" : ".05021106357689864",
        "semi_major_axis" : "1.067307907563281",
        "inclination" : "9.147035257450581",
        "ascending_node_longitude" : "260.8171110894983",
        "orbital_period" : "402.7476522809656",
        "perihelion_distance" : "1.013717242360495",
        "perihelion_argument" : "28.58149142441552",
        "aphelion_distance" : "1.120898572766068",
        "perihelion_time" : "2457982.786084365448",
        "mean_anomaly" : "15.83375990479978",
        "mean_motion" : ".8938599591112109",
        "equinox" : "J2000"
      }
    } ]
  }
}